CAS-2T & KS-1Q          
1 41847U 16066G   20240.24568215  .00000014  00000-0  12372-4 0  9998
2 41847  98.6480 291.4474 0365936  18.1474 343.2384 14.38086624199591
NAYIF-1 (EO-88)         
1 42017U 17008BX  20240.14434451  .00001247  00000-0  50267-4 0  9992
2 42017  97.3548 306.6631 0007860  76.9741 283.2375 15.26670498196332
MAX VALIER SAT          
1 42778U 17036P   20239.72438596  .00000716  00000-0  33560-4 0  9990
2 42778  97.2991 291.3976 0013573 130.2347 230.0079 15.22725108176427
RADFXSAT (FOX-1B)       
1 43017U 17073E   20240.29275061  .00000237  00000-0  23922-4 0  9997
2 43017  97.7175 149.7892 0256714 179.2158 180.9509 14.78997435149633
FOX-1D (AO-92)          
1 43137U 18004AC  20240.19038135  .00000881  00000-0  39039-4 0  9994
2 43137  97.4412 310.8604 0009722 157.6978 202.4684 15.24239069145818
DIWATA-2B               
1 43678U 18084H   20240.31239098  .00000389  00000-0  44467-4 0  9991
2 43678  97.8919 358.7432 0008869 309.1823  50.8592 14.91649804 99588
ES'HAIL 2               
1 43700U 18090A   20240.07236948  .00000124  00000-0  00000+0 0  9995
2 43700   0.0156 164.9476 0002046   6.3955 216.2747  1.00272853  6660
FOX-1CLIFF (AO-95)      
1 43770U 18099N   20240.18740453 -.00000039  00000-0  16373-5 0  9996
2 43770  97.7012 310.3203 0013633 325.7136  34.3203 14.95026878 94484
ITASAT 1                
1 43786U 18099AE  20239.76694059 -.00000006  00000-0  47120-5 0  9993
2 43786  97.7032 310.3772 0014139 320.6770  39.3423 14.95363128 94441
JY1SAT (JO-97)          
1 43803U 18099AX  20239.77299141 -.00000178  00000-0 -10875-4 0  9994
2 43803  97.6992 310.1858 0014131 320.7801  39.2395 14.95546955 94444
PSAT2 (NO-104)          
1 44354U 19036R   20239.46349455  .00010415  00000-0  14916-3 0  9990
2 44354  28.5308 280.4583 0359199 339.3653  19.2756 15.04759697 64368
BRICSAT2 (NO-103)       
1 44355U 19036S   20240.12403160  .00020749  00000-0  28254-3 0  9991
2 44355  28.5292 263.3454 0333490   7.2216 353.3030 15.11333605 64597
JAISAT-1                
1 44419U 19038F   20240.13001928  .00000594  00000-0  37387-4 0  9995
2 44419  97.5446 200.9251 0019945 245.6333 114.2816 15.12879937 63286
DUCHIFAT-3              
1 44854U 19089C   20239.83168272  .00000222  00000-0  24369-4 0  9999
2 44854  36.9670  42.4161 0009751 277.5701  82.3957 14.99108735 38863
RS-44 & BREEZE-KM R/B   
1 44909U 19096E   20239.80155762  .00000010  00000-0 -88678-5 0  9995
2 44909  82.5222 308.5755 0218309  62.2172 300.0875 12.79707613 31184
ORBITAL FACTORY 2 (OF-2)
1 45113U 19071C   20239.80222571  .00001586  00000-0  59581-4 0  9997
2 45113  51.6452  23.6594 0012454 312.6720  47.3212 15.33568840 31922
HUSKYSAT-1              
1 45119U 19071J   20239.83619483  .00001139  00000-0  45783-4 0  9991
2 45119  51.6451  23.1364 0011724 309.2178  50.7762 15.33769428 31928
